CCSDS_OMM_VERS = 2.0
CREATION_DATE  = 
ORIGINATOR     = 

OBJECT_NAME    = ISS (ZARYA)
OBJECT_ID      = 1998-067A
CENTER_NAME    = EARTH
REF_FRAME      = TEME
TIME_SYSTEM    = UTC
MEAN_ELEMENT_THEORY = SGP/SGP4

EPOCH          = 2026-02-02T12:47:52.857888
MEAN_MOTION    = 15.48343227
ECCENTRICITY   = .00111084
INCLINATION    = 51.6312
RA_OF_ASC_NODE = 246.1482
ARG_OF_PERICENTER = 57.0277
MEAN_ANOMALY   = 303.1777

EPHEMERIS_TYPE = 0
CLASSIFICATION_TYPE = U
NORAD_CAT_ID   = 25544
ELEMENT_SET_NO = 999
REV_AT_EPOCH   = 55088
BSTAR          = .18248934E-3
MEAN_MOTION_DOT = .9405E-4
MEAN_MOTION_DDOT = 0

CCSDS_OMM_VERS = 2.0
CREATION_DATE  = 
ORIGINATOR     = 

OBJECT_NAME    = CSS (TIANHE)
OBJECT_ID      = 2021-035A
CENTER_NAME    = EARTH
REF_FRAME      = TEME
TIME_SYSTEM    = UTC
MEAN_ELEMENT_THEORY = SGP/SGP4

EPOCH          = 2026-02-02T12:03:08.571456
MEAN_MOTION    = 15.59105413
ECCENTRICITY   = .00063887
INCLINATION    = 41.4673
RA_OF_ASC_NODE = 62.0121
ARG_OF_PERICENTER = 343.4134
MEAN_ANOMALY   = 16.6494

EPHEMERIS_TYPE = 0
CLASSIFICATION_TYPE = U
NORAD_CAT_ID   = 48274
ELEMENT_SET_NO = 999
REV_AT_EPOCH   = 27211
BSTAR          = .18189296E-3
MEAN_MOTION_DOT = .14324E-3
MEAN_MOTION_DDOT = 0

CCSDS_OMM_VERS = 2.0
CREATION_DATE  = 
ORIGINATOR     = 

OBJECT_NAME    = ISS (NAUKA)
OBJECT_ID      = 2021-066A
CENTER_NAME    = EARTH
REF_FRAME      = TEME
TIME_SYSTEM    = UTC
MEAN_ELEMENT_THEORY = SGP/SGP4

EPOCH          = 2026-02-02T12:47:52.857888
MEAN_MOTION    = 15.48343227
ECCENTRICITY   = .00111084
INCLINATION    = 51.6312
RA_OF_ASC_NODE = 246.1482
ARG_OF_PERICENTER = 57.0277
MEAN_ANOMALY   = 303.1777

EPHEMERIS_TYPE = 0
CLASSIFICATION_TYPE = U
NORAD_CAT_ID   = 49044
ELEMENT_SET_NO = 999
REV_AT_EPOCH   = 23044
BSTAR          = .18248934E-3
MEAN_MOTION_DOT = .9405E-4
MEAN_MOTION_DDOT = 0

CCSDS_OMM_VERS = 2.0
CREATION_DATE  = 
ORIGINATOR     = 

OBJECT_NAME    = FREGAT DEB
OBJECT_ID      = 2011-037PF
CENTER_NAME    = EARTH
REF_FRAME      = TEME
TIME_SYSTEM    = UTC
MEAN_ELEMENT_THEORY = SGP/SGP4

EPOCH          = 2026-01-31T07:51:38.734560
MEAN_MOTION    = 12.37389576
ECCENTRICITY   = .09194491
INCLINATION    = 51.6511
RA_OF_ASC_NODE = 52.4676
ARG_OF_PERICENTER = 333.8142
MEAN_ANOMALY   = 21.8846

EPHEMERIS_TYPE = 0
CLASSIFICATION_TYPE = U
NORAD_CAT_ID   = 49271
ELEMENT_SET_NO = 999
REV_AT_EPOCH   = 20806
BSTAR          = .66211825E-1
MEAN_MOTION_DOT = .37773E-3
MEAN_MOTION_DDOT = 0

CCSDS_OMM_VERS = 2.0
CREATION_DATE  = 
ORIGINATOR     = 

OBJECT_NAME    = CSS (WENTIAN)
OBJECT_ID      = 2022-085A
CENTER_NAME    = EARTH
REF_FRAME      = TEME
TIME_SYSTEM    = UTC
MEAN_ELEMENT_THEORY = SGP/SGP4

EPOCH          = 2026-02-02T12:03:08.571456
MEAN_MOTION    = 15.59105413
ECCENTRICITY   = .00063887
INCLINATION    = 41.4673
RA_OF_ASC_NODE = 62.0121
ARG_OF_PERICENTER = 343.4134
MEAN_ANOMALY   = 16.6494

EPHEMERIS_TYPE = 0
CLASSIFICATION_TYPE = U
NORAD_CAT_ID   = 53239
ELEMENT_SET_NO = 999
REV_AT_EPOCH   = 17384
BSTAR          = .18189296E-3
MEAN_MOTION_DOT = .14324E-3
MEAN_MOTION_DDOT = 0

CCSDS_OMM_VERS = 2.0
CREATION_DATE  = 
ORIGINATOR     = 

OBJECT_NAME    = CSS (MENGTIAN)
OBJECT_ID      = 2022-143A
CENTER_NAME    = EARTH
REF_FRAME      = TEME
TIME_SYSTEM    = UTC
MEAN_ELEMENT_THEORY = SGP/SGP4

EPOCH          = 2026-02-02T12:03:08.571456
MEAN_MOTION    = 15.59105413
ECCENTRICITY   = .00063887
INCLINATION    = 41.4673
RA_OF_ASC_NODE = 62.0121
ARG_OF_PERICENTER = 343.4134
MEAN_ANOMALY   = 16.6494

EPHEMERIS_TYPE = 0
CLASSIFICATION_TYPE = U
NORAD_CAT_ID   = 54216
ELEMENT_SET_NO = 999
REV_AT_EPOCH   = 15864
BSTAR          = .18189296E-3
MEAN_MOTION_DOT = .14324E-3
MEAN_MOTION_DDOT = 0

CCSDS_OMM_VERS = 2.0
CREATION_DATE  = 
ORIGINATOR     = 

OBJECT_NAME    = PROGRESS-MS 31
OBJECT_ID      = 2025-146A
CENTER_NAME    = EARTH
REF_FRAME      = TEME
TIME_SYSTEM    = UTC
MEAN_ELEMENT_THEORY = SGP/SGP4

EPOCH          = 2026-02-02T12:47:52.857888
MEAN_MOTION    = 15.48343227
ECCENTRICITY   = .00111084
INCLINATION    = 51.6312
RA_OF_ASC_NODE = 246.1482
ARG_OF_PERICENTER = 57.0277
MEAN_ANOMALY   = 303.1777

EPHEMERIS_TYPE = 0
CLASSIFICATION_TYPE = U
NORAD_CAT_ID   = 64751
ELEMENT_SET_NO = 999
REV_AT_EPOCH   = 675
BSTAR          = .18248934E-3
MEAN_MOTION_DOT = .9405E-4
MEAN_MOTION_DDOT = 0

CCSDS_OMM_VERS = 2.0
CREATION_DATE  = 
ORIGINATOR     = 

OBJECT_NAME    = TIANZHOU-9
OBJECT_ID      = 2025-149A
CENTER_NAME    = EARTH
REF_FRAME      = TEME
TIME_SYSTEM    = UTC
MEAN_ELEMENT_THEORY = SGP/SGP4

EPOCH          = 2026-02-02T12:03:08.571456
MEAN_MOTION    = 15.59105413
ECCENTRICITY   = .00063887
INCLINATION    = 41.4673
RA_OF_ASC_NODE = 62.0121
ARG_OF_PERICENTER = 343.4134
MEAN_ANOMALY   = 16.6494

EPHEMERIS_TYPE = 0
CLASSIFICATION_TYPE = U
NORAD_CAT_ID   = 64786
ELEMENT_SET_NO = 999
REV_AT_EPOCH   = 25530
BSTAR          = .18189296E-3
MEAN_MOTION_DOT = .14324E-3
MEAN_MOTION_DDOT = 0

CCSDS_OMM_VERS = 2.0
CREATION_DATE  = 
ORIGINATOR     = 

OBJECT_NAME    = DRAGON CRS-33
OBJECT_ID      = 2025-186A
CENTER_NAME    = EARTH
REF_FRAME      = TEME
TIME_SYSTEM    = UTC
MEAN_ELEMENT_THEORY = SGP/SGP4

EPOCH          = 2026-02-02T12:47:52.857888
MEAN_MOTION    = 15.48343227
ECCENTRICITY   = .00111084
INCLINATION    = 51.6312
RA_OF_ASC_NODE = 246.1482
ARG_OF_PERICENTER = 57.0277
MEAN_ANOMALY   = 303.1777

EPHEMERIS_TYPE = 0
CLASSIFICATION_TYPE = U
NORAD_CAT_ID   = 65304
ELEMENT_SET_NO = 999
REV_AT_EPOCH   = 11
BSTAR          = .18248934E-3
MEAN_MOTION_DOT = .9405E-4
MEAN_MOTION_DDOT = 0

CCSDS_OMM_VERS = 2.0
CREATION_DATE  = 
ORIGINATOR     = 

OBJECT_NAME    = PROGRESS-MS 32
OBJECT_ID      = 2025-204A
CENTER_NAME    = EARTH
REF_FRAME      = TEME
TIME_SYSTEM    = UTC
MEAN_ELEMENT_THEORY = SGP/SGP4

EPOCH          = 2026-02-02T12:47:52.857888
MEAN_MOTION    = 15.48343227
ECCENTRICITY   = .00111084
INCLINATION    = 51.6312
RA_OF_ASC_NODE = 246.1482
ARG_OF_PERICENTER = 57.0277
MEAN_ANOMALY   = 303.1777

EPHEMERIS_TYPE = 0
CLASSIFICATION_TYPE = U
NORAD_CAT_ID   = 65586
ELEMENT_SET_NO = 999
REV_AT_EPOCH   = 27
BSTAR          = .18248934E-3
MEAN_MOTION_DOT = .9405E-4
MEAN_MOTION_DDOT = 0

CCSDS_OMM_VERS = 2.0
CREATION_DATE  = 
ORIGINATOR     = 

OBJECT_NAME    = CYGNUS NG-23
OBJECT_ID      = 2025-208A
CENTER_NAME    = EARTH
REF_FRAME      = TEME
TIME_SYSTEM    = UTC
MEAN_ELEMENT_THEORY = SGP/SGP4

EPOCH          = 2026-02-02T12:47:52.857888
MEAN_MOTION    = 15.48343227
ECCENTRICITY   = .00111084
INCLINATION    = 51.6312
RA_OF_ASC_NODE = 246.1482
ARG_OF_PERICENTER = 57.0277
MEAN_ANOMALY   = 303.1777

EPHEMERIS_TYPE = 0
CLASSIFICATION_TYPE = U
NORAD_CAT_ID   = 65616
ELEMENT_SET_NO = 999
REV_AT_EPOCH   = 22
BSTAR          = .18248934E-3
MEAN_MOTION_DOT = .9405E-4
MEAN_MOTION_DDOT = 0

CCSDS_OMM_VERS = 2.0
CREATION_DATE  = 
ORIGINATOR     = 

OBJECT_NAME    = 1998-067XK
OBJECT_ID      = 1998-067XK
CENTER_NAME    = EARTH
REF_FRAME      = TEME
TIME_SYSTEM    = UTC
MEAN_ELEMENT_THEORY = SGP/SGP4

EPOCH          = 2026-02-02T12:49:59.896992
MEAN_MOTION    = 15.81269566
ECCENTRICITY   = .0003664
INCLINATION    = 51.6225
RA_OF_ASC_NODE = 231.8703
ARG_OF_PERICENTER = 208.4882
MEAN_ANOMALY   = 151.5920

EPHEMERIS_TYPE = 0
CLASSIFICATION_TYPE = U
NORAD_CAT_ID   = 65731
ELEMENT_SET_NO = 999
REV_AT_EPOCH   = 2129
BSTAR          = .11372054E-2
MEAN_MOTION_DOT = .234686E-2
MEAN_MOTION_DDOT = 0

